[{"OBJECT_NAME":"NIMIQ 2","OBJECT_ID":"2002-062A","EPOCH":"2026-03-15T01:06:17.604576","MEAN_MOTION":1.00271974,"ECCENTRICITY":0.0006345,"INCLINATION":9.2281,"RA_OF_ASC_NODE":57.8683,"ARG_OF_PERICENTER":299.5783,"MEAN_ANOMALY":82.5986,"EPHEMERIS_TYPE":0,"CLASSIFICATION_TYPE":"U","NORAD_CAT_ID":27632,"ELEMENT_SET_NO":999,"REV_AT_EPOCH":4324,"BSTAR":0,"MEAN_MOTION_DOT":-6.4e-7,"MEAN_MOTION_DDOT":0},{"OBJECT_NAME":"ANIK F2","OBJECT_ID":"2004-027A","EPOCH":"2026-03-15T06:13:48.114624","MEAN_MOTION":1.00272126,"ECCENTRICITY":0.00033837,"INCLINATION":3.0411,"RA_OF_ASC_NODE":80.6913,"ARG_OF_PERICENTER":306.368,"MEAN_ANOMALY":128.1447,"EPHEMERIS_TYPE":0,"CLASSIFICATION_TYPE":"U","NORAD_CAT_ID":28378,"ELEMENT_SET_NO":999,"REV_AT_EPOCH":4032,"BSTAR":0,"MEAN_MOTION_DOT":-4.9e-7,"MEAN_MOTION_DDOT":0},{"OBJECT_NAME":"ANIK F1R","OBJECT_ID":"2005-036A","EPOCH":"2026-03-15T04:32:12.857280","MEAN_MOTION":1.00272174,"ECCENTRICITY":0.00029376,"INCLINATION":4.0707,"RA_OF_ASC_NODE":77.7474,"ARG_OF_PERICENTER":306.9934,"MEAN_ANOMALY":108.8077,"EPHEMERIS_TYPE":0,"CLASSIFICATION_TYPE":"U","NORAD_CAT_ID":28868,"ELEMENT_SET_NO":999,"REV_AT_EPOCH":4551,"BSTAR":0,"MEAN_MOTION_DOT":-7.4e-7,"MEAN_MOTION_DDOT":0},{"OBJECT_NAME":"ANIK F3","OBJECT_ID":"2007-009A","EPOCH":"2026-03-15T06:11:40.818048","MEAN_MOTION":1.00272421,"ECCENTRICITY":0.00027093,"INCLINATION":0.953,"RA_OF_ASC_NODE":85.037,"ARG_OF_PERICENTER":275.8385,"MEAN_ANOMALY":146.1919,"EPHEMERIS_TYPE":0,"CLASSIFICATION_TYPE":"U","NORAD_CAT_ID":31102,"ELEMENT_SET_NO":999,"REV_AT_EPOCH":4562,"BSTAR":0,"MEAN_MOTION_DOT":-1.0e-8,"MEAN_MOTION_DDOT":0},{"OBJECT_NAME":"NIMIQ 4","OBJECT_ID":"2008-044A","EPOCH":"2026-03-15T06:22:09.812640","MEAN_MOTION":1.00271114,"ECCENTRICITY":0.00023741,"INCLINATION":0.0234,"RA_OF_ASC_NODE":117.0056,"ARG_OF_PERICENTER":240.858,"MEAN_ANOMALY":188.532,"EPHEMERIS_TYPE":0,"CLASSIFICATION_TYPE":"U","NORAD_CAT_ID":33373,"ELEMENT_SET_NO":999,"REV_AT_EPOCH":6404,"BSTAR":0,"MEAN_MOTION_DOT":-2.21e-6,"MEAN_MOTION_DDOT":0},{"OBJECT_NAME":"TELSTAR 11N","OBJECT_ID":"2009-009A","EPOCH":"2026-03-15T05:42:06.473088","MEAN_MOTION":1.00273051,"ECCENTRICITY":0.00025367,"INCLINATION":0.018,"RA_OF_ASC_NODE":161.1032,"ARG_OF_PERICENTER":183.1177,"MEAN_ANOMALY":236.5825,"EPHEMERIS_TYPE":0,"CLASSIFICATION_TYPE":"U","NORAD_CAT_ID":34111,"ELEMENT_SET_NO":999,"REV_AT_EPOCH":4530,"BSTAR":0,"MEAN_MOTION_DOT":-2.51e-6,"MEAN_MOTION_DDOT":0},{"OBJECT_NAME":"TERRESTAR-1","OBJECT_ID":"2009-035A","EPOCH":"2026-03-15T01:05:47.653152","MEAN_MOTION":1.00273098,"ECCENTRICITY":0.00030282,"INCLINATION":5.1046,"RA_OF_ASC_NODE":48.8291,"ARG_OF_PERICENTER":312.2349,"MEAN_ANOMALY":77.0317,"EPHEMERIS_TYPE":0,"CLASSIFICATION_TYPE":"U","NORAD_CAT_ID":35496,"ELEMENT_SET_NO":999,"REV_AT_EPOCH":6119,"BSTAR":0,"MEAN_MOTION_DOT":-5.4e-7,"MEAN_MOTION_DDOT":0},{"OBJECT_NAME":"NIMIQ 5","OBJECT_ID":"2009-050A","EPOCH":"2026-03-15T06:24:47.062368","MEAN_MOTION":1.00271312,"ECCENTRICITY":0.0002694,"INCLINATION":0.023,"RA_OF_ASC_NODE":245.0887,"ARG_OF_PERICENTER":116.2167,"MEAN_ANOMALY":195.0577,"EPHEMERIS_TYPE":0,"CLASSIFICATION_TYPE":"U","NORAD_CAT_ID":35873,"ELEMENT_SET_NO":999,"REV_AT_EPOCH":6040,"BSTAR":0,"MEAN_MOTION_DOT":-2.58e-6,"MEAN_MOTION_DDOT":0},{"OBJECT_NAME":"SKYTERRA 1","OBJECT_ID":"2010-061A","EPOCH":"2026-03-15T01:08:32.390304","MEAN_MOTION":1.00272422,"ECCENTRICITY":0.00015864,"INCLINATION":4.9238,"RA_OF_ASC_NODE":50.8967,"ARG_OF_PERICENTER":329.1588,"MEAN_ANOMALY":68.4206,"EPHEMERIS_TYPE":0,"CLASSIFICATION_TYPE":"U","NORAD_CAT_ID":37218,"ELEMENT_SET_NO":999,"REV_AT_EPOCH":5625,"BSTAR":0,"MEAN_MOTION_DOT":-1.16e-6,"MEAN_MOTION_DDOT":0},{"OBJECT_NAME":"TELSTAR 14R","OBJECT_ID":"2011-021A","EPOCH":"2026-03-14T23:36:48.686112","MEAN_MOTION":1.00268726,"ECCENTRICITY":0.00022293,"INCLINATION":0.0257,"RA_OF_ASC_NODE":147.341,"ARG_OF_PERICENTER":211.0799,"MEAN_ANOMALY":105.3846,"EPHEMERIS_TYPE":0,"CLASSIFICATION_TYPE":"U","NORAD_CAT_ID":37602,"ELEMENT_SET_NO":999,"REV_AT_EPOCH":5489,"BSTAR":0,"MEAN_MOTION_DOT":0,"MEAN_MOTION_DDOT":0},{"OBJECT_NAME":"NIMIQ 6","OBJECT_ID":"2012-026A","EPOCH":"2026-03-15T05:02:58.713792","MEAN_MOTION":1.00271428,"ECCENTRICITY":0.00025,"INCLINATION":0.0293,"RA_OF_ASC_NODE":266.6873,"ARG_OF_PERICENTER":87.1045,"MEAN_ANOMALY":163.6616,"EPHEMERIS_TYPE":0,"CLASSIFICATION_TYPE":"U","NORAD_CAT_ID":38342,"ELEMENT_SET_NO":999,"REV_AT_EPOCH":4947,"BSTAR":0,"MEAN_MOTION_DOT":-1.74e-6,"MEAN_MOTION_DDOT":0},{"OBJECT_NAME":"ANIK G1","OBJECT_ID":"2013-014A","EPOCH":"2026-03-15T06:14:55.506624","MEAN_MOTION":1.00272155,"ECCENTRICITY":0.00026907,"INCLINATION":0.0267,"RA_OF_ASC_NODE":249.7091,"ARG_OF_PERICENTER":85.2084,"MEAN_ANOMALY":184.3661,"EPHEMERIS_TYPE":0,"CLASSIFICATION_TYPE":"U","NORAD_CAT_ID":39127,"ELEMENT_SET_NO":999,"REV_AT_EPOCH":4731,"BSTAR":0,"MEAN_MOTION_DOT":-7.5e-7,"MEAN_MOTION_DDOT":0},{"OBJECT_NAME":"TELSTAR 12V","OBJECT_ID":"2015-068A","EPOCH":"2026-03-15T04:58:32.831616","MEAN_MOTION":1.00271683,"ECCENTRICITY":0.00025579,"INCLINATION":0.0154,"RA_OF_ASC_NODE":133.0816,"ARG_OF_PERICENTER":227.6272,"MEAN_ANOMALY":231.7404,"EPHEMERIS_TYPE":0,"CLASSIFICATION_TYPE":"U","NORAD_CAT_ID":41036,"ELEMENT_SET_NO":999,"REV_AT_EPOCH":3768,"BSTAR":0,"MEAN_MOTION_DOT":-1.2e-6,"MEAN_MOTION_DDOT":0},{"OBJECT_NAME":"VIASAT-2","OBJECT_ID":"2017-029A","EPOCH":"2026-03-13T21:54:32.432832","MEAN_MOTION":1.00271485,"ECCENTRICITY":5.234e-5,"INCLINATION":0.0237,"RA_OF_ASC_NODE":251.7614,"ARG_OF_PERICENTER":154.6739,"MEAN_ANOMALY":23.821,"EPHEMERIS_TYPE":0,"CLASSIFICATION_TYPE":"U","NORAD_CAT_ID":42740,"ELEMENT_SET_NO":999,"REV_AT_EPOCH":3224,"BSTAR":0,"MEAN_MOTION_DOT":-2.66e-6,"MEAN_MOTION_DDOT":0},{"OBJECT_NAME":"LEO 1 (LEO VANTAGE 1)","OBJECT_ID":"2018-004C","EPOCH":"2026-03-15T05:31:09.682752","MEAN_MOTION":14.67247755,"ECCENTRICITY":0.0352472,"INCLINATION":99.2473,"RA_OF_ASC_NODE":340.269,"ARG_OF_PERICENTER":7.9411,"MEAN_ANOMALY":352.717,"EPHEMERIS_TYPE":0,"CLASSIFICATION_TYPE":"U","NORAD_CAT_ID":43113,"ELEMENT_SET_NO":999,"REV_AT_EPOCH":42370,"BSTAR":0.00038724603,"MEAN_MOTION_DOT":5.574e-5,"MEAN_MOTION_DDOT":0},{"OBJECT_NAME":"TELSTAR 19V","OBJECT_ID":"2018-059A","EPOCH":"2026-03-14T01:50:06.785088","MEAN_MOTION":1.00271403,"ECCENTRICITY":0.00010018,"INCLINATION":0.0197,"RA_OF_ASC_NODE":170.78,"ARG_OF_PERICENTER":268.0214,"MEAN_ANOMALY":57.4139,"EPHEMERIS_TYPE":0,"CLASSIFICATION_TYPE":"U","NORAD_CAT_ID":43562,"ELEMENT_SET_NO":999,"REV_AT_EPOCH":2819,"BSTAR":0,"MEAN_MOTION_DOT":-2.8e-6,"MEAN_MOTION_DDOT":0},{"OBJECT_NAME":"TELSTAR 18V","OBJECT_ID":"2018-069A","EPOCH":"2026-03-14T10:52:40.310112","MEAN_MOTION":1.00272233,"ECCENTRICITY":0.00021178,"INCLINATION":0.0181,"RA_OF_ASC_NODE":239.1072,"ARG_OF_PERICENTER":117.3545,"MEAN_ANOMALY":116.7669,"EPHEMERIS_TYPE":0,"CLASSIFICATION_TYPE":"U","NORAD_CAT_ID":43611,"ELEMENT_SET_NO":999,"REV_AT_EPOCH":2768,"BSTAR":0,"MEAN_MOTION_DOT":-2.94e-6,"MEAN_MOTION_DDOT":0}]
